STARLINK-36108          
1 66868U 25281W   25354.83335647 -.01946657  00000+0 -15537-1 0  9991
2 66868  43.0006  72.7607 0001191 274.6825 319.8431 15.73130195  2538
STARLINK-36092          
1 66869U 25281X   25354.83335647 -.01950221  00000+0 -15567-1 0  9997
2 66869  43.0006  72.7563 0001144 274.4158 322.0250 15.73132972  2726
STARLINK-36114          
1 66870U 25281Y   25354.83335647 -.01900983  00000+0 -15478-1 0  9990
2 66870  43.0006  72.7514 0001097 274.8398 323.5167 15.73127989  2591
STARLINK-36095          
1 66871U 25281Z   25354.83335647 -.01947950  00000+0 -15546-1 0  9992
2 66871  43.0007  72.7461 0001171 271.3423 328.9287 15.73134532  2727
STARLINK-36082          
1 66872U 25281AA  25354.83335647 -.01943490  00000+0 -15510-1 0  9999
2 66872  43.0004  72.7411 0001172 273.4058 328.7894 15.73127638  2594
STARLINK-36128          
1 66873U 25281AB  25354.83335647 -.01902344  00000+0 -15491-1 0  9991
2 66873  43.0008  72.7256 0001222 275.7494 332.1975 15.73126274  2720
STARLINK-36129          
1 66874U 25281AC  25354.83335647 -.01948675  00000+0 -15554-1 0  9999
2 66874  43.0006  72.7365 0001195 275.4551 328.6554 15.73131251  2724
STARLINK-36053          
1 66875U 25281AD  25354.83335647 -.01944470  00000+0 -15516-1 0  9997
2 66875  43.0006  72.7208 0001181 269.6209 340.2375 15.73131506  2725
STARLINK-35702          
1 66876U 25281AE  25354.83335647 -.01950284  00000+0 -15567-1 0  9994
2 66876  43.0007  72.7310 0001198 275.0812 330.9452 15.73133063  2722
ZQ-3 R/B                
1 66877U 25282A   25354.30916566  .00936840  77529-5  16913-3 0  9996
2 66877  56.9493  28.3554 0715463 233.2383 120.0902 14.74860688  2502
STARLINK-35866          
1 66878U 25283A   25354.83335647 -.00053815  00000+0 -36527-3 0  9992
2 66878  53.1580  33.2507 0000811  88.2650 203.4157 15.74203334  3724
STARLINK-35749          
1 66879U 25283B   25354.83335647 -.00089835  00000+0 -61464-3 0  9992
2 66879  53.1581  33.2424 0001224  88.1552 207.3512 15.74225848  3725
