CCSDS_OMM_VERS = 2.0
CREATION_DATE  = 
ORIGINATOR     = 

OBJECT_NAME    = STARLINK-36108
OBJECT_ID      = 2025-281W
CENTER_NAME    = EARTH
REF_FRAME      = TEME
TIME_SYSTEM    = UTC
MEAN_ELEMENT_THEORY = SGP/SGP4

EPOCH          = 2025-12-20T20:00:01.999008
MEAN_MOTION    = 15.73130195
ECCENTRICITY   = .0001191
INCLINATION    = 43.0006
RA_OF_ASC_NODE = 72.7607
ARG_OF_PERICENTER = 274.6825
MEAN_ANOMALY   = 319.8431

EPHEMERIS_TYPE = 0
CLASSIFICATION_TYPE = U
NORAD_CAT_ID   = 66868
ELEMENT_SET_NO = 999
REV_AT_EPOCH   = 253
BSTAR          = -.15537E-1
MEAN_MOTION_DOT = -.1946657E-1
MEAN_MOTION_DDOT = 0

CCSDS_OMM_VERS = 2.0
CREATION_DATE  = 
ORIGINATOR     = 

OBJECT_NAME    = STARLINK-36092
OBJECT_ID      = 2025-281X
CENTER_NAME    = EARTH
REF_FRAME      = TEME
TIME_SYSTEM    = UTC
MEAN_ELEMENT_THEORY = SGP/SGP4

EPOCH          = 2025-12-20T20:00:01.999008
MEAN_MOTION    = 15.73132972
ECCENTRICITY   = .0001144
INCLINATION    = 43.0006
RA_OF_ASC_NODE = 72.7563
ARG_OF_PERICENTER = 274.4158
MEAN_ANOMALY   = 322.0250

EPHEMERIS_TYPE = 0
CLASSIFICATION_TYPE = U
NORAD_CAT_ID   = 66869
ELEMENT_SET_NO = 999
REV_AT_EPOCH   = 272
BSTAR          = -.15567E-1
MEAN_MOTION_DOT = -.1950221E-1
MEAN_MOTION_DDOT = 0

CCSDS_OMM_VERS = 2.0
CREATION_DATE  = 
ORIGINATOR     = 

OBJECT_NAME    = STARLINK-36114
OBJECT_ID      = 2025-281Y
CENTER_NAME    = EARTH
REF_FRAME      = TEME
TIME_SYSTEM    = UTC
MEAN_ELEMENT_THEORY = SGP/SGP4

EPOCH          = 2025-12-20T20:00:01.999008
MEAN_MOTION    = 15.73127989
ECCENTRICITY   = .0001097
INCLINATION    = 43.0006
RA_OF_ASC_NODE = 72.7514
ARG_OF_PERICENTER = 274.8398
MEAN_ANOMALY   = 323.5167

EPHEMERIS_TYPE = 0
CLASSIFICATION_TYPE = U
NORAD_CAT_ID   = 66870
ELEMENT_SET_NO = 999
REV_AT_EPOCH   = 259
BSTAR          = -.15478E-1
MEAN_MOTION_DOT = -.1900983E-1
MEAN_MOTION_DDOT = 0

CCSDS_OMM_VERS = 2.0
CREATION_DATE  = 
ORIGINATOR     = 

OBJECT_NAME    = STARLINK-36095
OBJECT_ID      = 2025-281Z
CENTER_NAME    = EARTH
REF_FRAME      = TEME
TIME_SYSTEM    = UTC
MEAN_ELEMENT_THEORY = SGP/SGP4

EPOCH          = 2025-12-20T20:00:01.999008
MEAN_MOTION    = 15.73134532
ECCENTRICITY   = .0001171
INCLINATION    = 43.0007
RA_OF_ASC_NODE = 72.7461
ARG_OF_PERICENTER = 271.3423
MEAN_ANOMALY   = 328.9287

EPHEMERIS_TYPE = 0
CLASSIFICATION_TYPE = U
NORAD_CAT_ID   = 66871
ELEMENT_SET_NO = 999
REV_AT_EPOCH   = 272
BSTAR          = -.15546E-1
MEAN_MOTION_DOT = -.194795E-1
MEAN_MOTION_DDOT = 0

CCSDS_OMM_VERS = 2.0
CREATION_DATE  = 
ORIGINATOR     = 

OBJECT_NAME    = STARLINK-36082
OBJECT_ID      = 2025-281AA
CENTER_NAME    = EARTH
REF_FRAME      = TEME
TIME_SYSTEM    = UTC
MEAN_ELEMENT_THEORY = SGP/SGP4

EPOCH          = 2025-12-20T20:00:01.999008
MEAN_MOTION    = 15.73127638
ECCENTRICITY   = .0001172
INCLINATION    = 43.0004
RA_OF_ASC_NODE = 72.7411
ARG_OF_PERICENTER = 273.4058
MEAN_ANOMALY   = 328.7894

EPHEMERIS_TYPE = 0
CLASSIFICATION_TYPE = U
NORAD_CAT_ID   = 66872
ELEMENT_SET_NO = 999
REV_AT_EPOCH   = 259
BSTAR          = -.1551E-1
MEAN_MOTION_DOT = -.194349E-1
MEAN_MOTION_DDOT = 0

CCSDS_OMM_VERS = 2.0
CREATION_DATE  = 
ORIGINATOR     = 

OBJECT_NAME    = STARLINK-36128
OBJECT_ID      = 2025-281AB
CENTER_NAME    = EARTH
REF_FRAME      = TEME
TIME_SYSTEM    = UTC
MEAN_ELEMENT_THEORY = SGP/SGP4

EPOCH          = 2025-12-20T20:00:01.999008
MEAN_MOTION    = 15.73126274
ECCENTRICITY   = .0001222
INCLINATION    = 43.0008
RA_OF_ASC_NODE = 72.7256
ARG_OF_PERICENTER = 275.7494
MEAN_ANOMALY   = 332.1975

EPHEMERIS_TYPE = 0
CLASSIFICATION_TYPE = U
NORAD_CAT_ID   = 66873
ELEMENT_SET_NO = 999
REV_AT_EPOCH   = 272
BSTAR          = -.15491E-1
MEAN_MOTION_DOT = -.1902344E-1
MEAN_MOTION_DDOT = 0

CCSDS_OMM_VERS = 2.0
CREATION_DATE  = 
ORIGINATOR     = 

OBJECT_NAME    = STARLINK-36129
OBJECT_ID      = 2025-281AC
CENTER_NAME    = EARTH
REF_FRAME      = TEME
TIME_SYSTEM    = UTC
MEAN_ELEMENT_THEORY = SGP/SGP4

EPOCH          = 2025-12-20T20:00:01.999008
MEAN_MOTION    = 15.73131251
ECCENTRICITY   = .0001195
INCLINATION    = 43.0006
RA_OF_ASC_NODE = 72.7365
ARG_OF_PERICENTER = 275.4551
MEAN_ANOMALY   = 328.6554

EPHEMERIS_TYPE = 0
CLASSIFICATION_TYPE = U
NORAD_CAT_ID   = 66874
ELEMENT_SET_NO = 999
REV_AT_EPOCH   = 272
BSTAR          = -.15554E-1
MEAN_MOTION_DOT = -.1948675E-1
MEAN_MOTION_DDOT = 0

CCSDS_OMM_VERS = 2.0
CREATION_DATE  = 
ORIGINATOR     = 

OBJECT_NAME    = STARLINK-36053
OBJECT_ID      = 2025-281AD
CENTER_NAME    = EARTH
REF_FRAME      = TEME
TIME_SYSTEM    = UTC
MEAN_ELEMENT_THEORY = SGP/SGP4

EPOCH          = 2025-12-20T20:00:01.999008
MEAN_MOTION    = 15.73131506
ECCENTRICITY   = .0001181
INCLINATION    = 43.0006
RA_OF_ASC_NODE = 72.7208
ARG_OF_PERICENTER = 269.6209
MEAN_ANOMALY   = 340.2375

EPHEMERIS_TYPE = 0
CLASSIFICATION_TYPE = U
NORAD_CAT_ID   = 66875
ELEMENT_SET_NO = 999
REV_AT_EPOCH   = 272
BSTAR          = -.15516E-1
MEAN_MOTION_DOT = -.194447E-1
MEAN_MOTION_DDOT = 0

CCSDS_OMM_VERS = 2.0
CREATION_DATE  = 
ORIGINATOR     = 

OBJECT_NAME    = STARLINK-35702
OBJECT_ID      = 2025-281AE
CENTER_NAME    = EARTH
REF_FRAME      = TEME
TIME_SYSTEM    = UTC
MEAN_ELEMENT_THEORY = SGP/SGP4

EPOCH          = 2025-12-20T20:00:01.999008
MEAN_MOTION    = 15.73133063
ECCENTRICITY   = .0001198
INCLINATION    = 43.0007
RA_OF_ASC_NODE = 72.7310
ARG_OF_PERICENTER = 275.0812
MEAN_ANOMALY   = 330.9452

EPHEMERIS_TYPE = 0
CLASSIFICATION_TYPE = U
NORAD_CAT_ID   = 66876
ELEMENT_SET_NO = 999
REV_AT_EPOCH   = 272
BSTAR          = -.15567E-1
MEAN_MOTION_DOT = -.1950284E-1
MEAN_MOTION_DDOT = 0

CCSDS_OMM_VERS = 2.0
CREATION_DATE  = 
ORIGINATOR     = 

OBJECT_NAME    = ZQ-3 R/B
OBJECT_ID      = 2025-282A
CENTER_NAME    = EARTH
REF_FRAME      = TEME
TIME_SYSTEM    = UTC
MEAN_ELEMENT_THEORY = SGP/SGP4

EPOCH          = 2025-12-20T07:25:11.913024
MEAN_MOTION    = 14.74860688
ECCENTRICITY   = .07154631
INCLINATION    = 56.9493
RA_OF_ASC_NODE = 28.3554
ARG_OF_PERICENTER = 233.2383
MEAN_ANOMALY   = 120.0902

EPHEMERIS_TYPE = 0
CLASSIFICATION_TYPE = U
NORAD_CAT_ID   = 66877
ELEMENT_SET_NO = 999
REV_AT_EPOCH   = 250
BSTAR          = .16912558E-3
MEAN_MOTION_DOT = .93684E-2
MEAN_MOTION_DDOT = .7752874E-5

CCSDS_OMM_VERS = 2.0
CREATION_DATE  = 
ORIGINATOR     = 

OBJECT_NAME    = STARLINK-35866
OBJECT_ID      = 2025-283A
CENTER_NAME    = EARTH
REF_FRAME      = TEME
TIME_SYSTEM    = UTC
MEAN_ELEMENT_THEORY = SGP/SGP4

EPOCH          = 2025-12-20T20:00:01.999008
MEAN_MOTION    = 15.74203334
ECCENTRICITY   = .0000811
INCLINATION    = 53.1580
RA_OF_ASC_NODE = 33.2507
ARG_OF_PERICENTER = 88.2650
MEAN_ANOMALY   = 203.4157

EPHEMERIS_TYPE = 0
CLASSIFICATION_TYPE = U
NORAD_CAT_ID   = 66878
ELEMENT_SET_NO = 999
REV_AT_EPOCH   = 372
BSTAR          = -.36527E-3
MEAN_MOTION_DOT = -.53815E-3
MEAN_MOTION_DDOT = 0

CCSDS_OMM_VERS = 2.0
CREATION_DATE  = 
ORIGINATOR     = 

OBJECT_NAME    = STARLINK-35749
OBJECT_ID      = 2025-283B
CENTER_NAME    = EARTH
REF_FRAME      = TEME
TIME_SYSTEM    = UTC
MEAN_ELEMENT_THEORY = SGP/SGP4

EPOCH          = 2025-12-20T20:00:01.999008
MEAN_MOTION    = 15.74225848
ECCENTRICITY   = .0001224
INCLINATION    = 53.1581
RA_OF_ASC_NODE = 33.2424
ARG_OF_PERICENTER = 88.1552
MEAN_ANOMALY   = 207.3512

EPHEMERIS_TYPE = 0
CLASSIFICATION_TYPE = U
NORAD_CAT_ID   = 66879
ELEMENT_SET_NO = 999
REV_AT_EPOCH   = 372
BSTAR          = -.61464E-3
MEAN_MOTION_DOT = -.89835E-3
MEAN_MOTION_DDOT = 0

